id,district,hospital_name,bcg_vaccine,routine_child_vaccine,child_flu_under3,child_flu_over3,adult_flu,covid19,pneumococcal,rotavirus,mpox,enterovirus,address,phone,voice_reservation,longitude,latitude
1,63000010,長庚醫療財團法人台北長庚紀念醫院,1,1,1,1,1,1,1,1,1,1,臺北市松山區敦化北路199號,(02)27135211,0,121.549676,25.055524
2,63000010,臺北市立聯合醫院附設松山門診部,1,1,1,1,1,1,1,1,0,1,臺北市松山區八德路四段694號,(02)27653147,0,121.577306,25.04967
3,63000010,三軍總醫院松山分院附設民眾診療服務處,0,1,1,1,1,1,1,1,1,1,臺北市松山區健康路131號,(02)27642151,0,121.557702,25.05394
4,63000010,基督復臨安息日會醫療財團法人臺安醫院,1,1,1,1,1,1,1,1,0,0,臺北市松山區八德路二段424號,(02)27718151,0,121.547274,25.048054
5,63000010,江崇萍小兒科診所,0,1,1,1,1,1,1,1,0,1,臺北市松山區南京東路五段251巷24弄27號1樓,(02)27632260,0,121.564351,25.052357
6,63000010,車參薇小兒科診所,0,1,1,1,1,1,1,1,0,1,臺北市松山區八德路三段195號１樓,(02)25770101,0,121.556187,25.048163
7,63000010,博仁綜合醫院,0,1,1,1,1,1,1,1,0,0,臺北市松山區光復北路66號,(02)25786677,0,121.560387,25.049959
8,63000010,佑家診所,0,1,1,1,1,1,1,1,0,0,臺北市松山區八德路三段233號,(02)25785658,0,121.557198,25.048255
9,63000010,大家好診所,0,1,1,1,1,1,1,0,0,0,臺北市松山區民生東路四段80巷11弄2號1樓,(02)27138815,0,121.553089,25.056581
10,63000010,閎新耳鼻喉科皮膚科聯合診所,0,1,1,1,1,1,1,0,0,0,臺北市松山區八德路三段20-2號1樓,(02)25779898,0,121.554198,25.046151
11,63000010,劉內兒科診所,0,1,1,1,1,1,1,0,0,0,臺北市松山區民生東路五段148號1樓,(02)27603922,0,121.562189,25.058477
12,63000010,安兒康小兒專科診所,0,1,1,1,1,1,0,1,0,0,臺北市松山區敦化北路118號1樓,(02)77287688,0,121.548568,25.053824
13,63000010,心田民生診所,0,1,1,1,1,1,0,0,0,0,臺北市松山區民生東路五段105號1樓,(02)27653039,0,121.567284,25.058034
14,63000010,弘宇診所,0,0,1,1,1,1,1,0,0,0,臺北市松山區民權東路三段160巷2之6號,(02)27128875,0,121.547732,25.061581
15,63000010,全煜耳鼻喉科診所,0,1,0,1,1,1,0,0,0,0,臺北市松山區復興北路73號2樓,(02)87729068,0,121.545969,25.057031
16,63000010,弘光耳鼻喉科診所,0,0,1,0,1,1,1,0,0,0,臺北市松山區民生東路四段117號,(02)27181177,0,121.553314,25.058242
17,63000010,吳慶南內科診所,0,0,0,1,1,1,1,0,0,0,臺北市松山區民生東路五段138號,(02)27659566,0,121.566461,25.059041
18,63000010,宥全診所,0,0,0,1,1,1,1,0,0,0,臺北市松山區民生東路五段216號1樓,(02)27678225,0,121.565044,25.058849
19,63000010,陳炳堅內科診所,0,0,0,1,1,1,1,0,0,0,臺北市松山區延壽街327號,(02)27637199,0,121.56036,25.056786
20,63000010,駿昂耳鼻喉科診所,0,0,0,1,1,1,1,0,0,0,臺北市松山區八德路二段395號1樓,(02)87728086,0,121.545431,25.048059
21,63000010,畇力診所,0,0,0,1,1,0,1,0,0,0,臺北市松山區富錦街512號1樓,(02)27659022,0,121.564516,25.060914
22,63000010,林忠志診所,0,0,0,1,1,0,1,0,0,0,臺北市松山區南京東路五段291巷20弄3-3號,(02)27689577,0,121.565604,25.052431
23,63000010,邱楠超診所,0,0,0,1,0,1,1,0,0,0,臺北市松山區延吉街20號1樓,(02)25702296,0,121.552838,25.045075
24,63000010,王躬仁診所,0,0,0,0,1,1,1,0,0,0,臺北市松山區新中街12-3號1樓,(02)27646685,0,121.560437,25.059559
25,63000010,民生翁耳鼻喉科診所,0,0,0,0,1,1,1,0,0,0,臺北市松山區民生東路五段78號1樓,(02)27625922,0,121.559046,25.058364
26,63000010,康瑞耳鼻喉科診所,0,0,0,0,1,1,1,0,0,0,臺北市松山區八德路三段154號,(02)25782522,0,121.55496,25.047981
27,63000010,江建中診所,0,0,0,0,1,1,1,0,0,0,臺北市松山區八德路四段285號,(02)27647883,0,121.565975,25.04914
28,63000010,澄東耳鼻喉科診所,0,0,0,1,1,0,0,0,0,0,臺北市松山區三民路37號,(02)27420552,0,121.564697,25.062574
29,63000010,安禾聯合診所,0,0,0,0,1,1,0,0,0,0,臺北市松山區民權東路三段178號3樓,(02)27137889,0,121.549546,25.061461
30,63000010,安德聯合診所,0,0,0,0,1,0,1,0,0,0,臺北市松山區八德路三段34號4樓及12樓,(02)25705886,0,121.551941,25.048066
31,63000010,朱家庭醫學科診所,0,0,0,0,1,0,0,0,0,0,臺北市松山區八德路三段12巷57弄39-1號1樓,(02)25795004,0,121.551556,25.045314
32,63000020,臺北醫學大學附設醫院,1,1,1,1,1,1,1,1,1,1,臺北市信義區吳興街252號,(02)27372181,0,121.563635,25.026639
33,63000020,臺北市立聯合醫院附設信義門診部,1,1,1,1,1,1,1,1,0,1,臺北市信義區大道路116號1樓,(02)87804152,0,121.582268,25.04123
34,63000020,黃啟彰診所,0,1,1,1,1,1,1,1,0,1,臺北市信義區松山路261-1號,(02)27696218,0,121.582299,25.026847
35,63000020,張育驍診所,0,1,1,1,1,1,1,1,0,0,臺北市信義區吳興街467巷2弄6號1樓,(02)27296611,0,121.569376,25.023884
36,63000020,明輝診所,0,1,1,1,1,1,0,1,0,1,臺北市信義區松隆路282-3號,(02)87871235,0,121.576681,25.048285
37,63000020,林應然小兒科診所,0,1,1,1,1,1,0,1,0,1,臺北市信義區福德街75號,(02)27595328,0,121.581139,25.036855
38,63000020,長風小兒科診所,0,1,1,1,1,1,0,1,0,1,臺北市信義區莊敬路351號,(02)27227943,0,121.564543,25.027889
39,63000020,登瑞安診所,0,1,1,1,1,1,1,0,0,0,臺北市信義區林口街232號,(02)27265228,0,121.581347,25.0425
40,63000020,信義邱婦產科診所,0,0,1,1,1,1,1,1,0,0,臺北市信義區虎林街198號,(02)27278275,0,121.57688,25.038442
41,63000020,承芯耳鼻喉科診所,0,0,1,1,1,1,1,0,0,0,臺北市信義區大道路121號1樓,(02)27265025,0,121.583276,25.039328
42,63000020,原力復健科診所,0,0,1,1,1,1,1,0,0,0,臺北市信義區基隆路二段145號,(02)27327311,0,121.555739,25.026974
43,63000020,聯合報系員工診療所,0,0,0,1,1,1,1,0,0,0,臺北市信義區忠孝東路四段559巷1號6樓,(02)27601618,0,121.563599,25.042057
44,63000020,松仁耳鼻喉科診所,0,0,0,1,1,1,0,0,0,0,臺北市信義區松仁路231號,(02)87808580,0,121.568739,25.026223
45,63000020,臺北市立聯合醫院松德院區,0,0,0,0,1,1,1,0,0,0,臺北市信義區松德路309號,(02)27263141,0,121.574354,25.030812
46,63000020,王寬仁診所,0,0,0,0,1,1,1,0,0,0,臺北市信義區虎林街121巷11號1樓,(02)27204952,0,121.57706,25.040289
47,63000020,永吉羅耳鼻喉科診所,0,0,0,0,1,1,1,0,0,0,臺北市信義區永吉路272號,(02)27683191,0,121.575158,25.04819
48,63000020,朱耳鼻喉科診所,0,0,0,0,1,1,1,0,0,0,臺北市信義區忠孝東路五段452號,(02)27209172,0,121.576319,25.040691
49,63000020,松山班廷建興診所,0,0,0,0,1,1,1,0,0,0,臺北市信義區市民大道六段318號,(02)27652295,0,121.579652,25.048766
50,63000020,栢麗恆全人診所,0,0,0,0,1,1,1,0,0,0,臺北市信義區忠孝東路五段431號2樓,(02)27657065,0,121.575602,25.041014
51,63000020,臺北產業醫診所,0,0,0,0,1,1,1,0,0,0,臺北市信義區信義路五段7號35樓,(02)81016355,0,121.570712,25.024635
52,63000020,福德郭耳鼻喉科診所,0,0,0,0,1,1,1,0,0,0,臺北市信義區福德街62號,(02)27591051,0,121.58062,25.036938
53,63000020,松禾診所,0,0,0,1,1,0,0,0,0,0,臺北市信義區松山路130號3樓,(02)27666738,0,121.577609,25.047692
54,63000020,大明診所,0,0,0,0,1,1,0,0,0,0,臺北市信義區崇德街35號,(02)27326885,0,121.557494,25.02336
55,63000020,松德耳鼻喉科診所,0,0,0,0,1,1,0,0,0,0,臺北市信義區松德路58號,(02)27584958,0,121.576414,25.038759
56,63000020,桂其安家醫科診所,0,0,0,0,1,1,0,0,0,0,臺北市信義區莊敬路462號,(02)27229173,0,121.567725,25.026719
57,63000020,莊敬診所,0,0,0,0,1,1,0,0,0,0,臺北市信義區莊敬路280號,(02)27589258,0,121.562722,25.028803
58,63000020,台灣中油股份有限公司員工診所,0,0,0,0,1,0,1,0,0,0,臺北市信義區松仁路3號3樓,(02)87259796,0,121.569572,25.025887
59,63000020,德佑診所,0,0,0,0,1,0,0,0,0,0,臺北市信義區福德街215號,(02)27596037,0,121.584717,25.038403
60,63000020,嚴敏心耳鼻喉科診所,0,0,0,0,0,1,0,0,0,0,臺北市信義區松山路541巷4號1樓,(02)27279558,0,121.578504,25.037607
61,63000030,國泰醫療財團法人國泰綜合醫院,1,1,1,1,1,1,1,1,1,1,臺北市大安區仁愛路四段280號,(02)27082121,0,121.553692,25.036942
62,63000030,臺北市立聯合醫院仁愛院區,1,1,1,1,1,1,1,1,1,1,臺北市大安區仁愛路四段10號,(02)27093600,0,121.545299,25.03754
63,63000030,尹書田醫療財團法人書田泌尿科眼科診所,0,1,1,1,1,1,1,1,1,1,臺北市大安區建國南路二段276號,(02)23690211,0,121.537262,25.025174
64,63000030,臺北市立聯合醫院附設大安門診部,1,1,1,1,1,1,1,1,0,0,臺北市大安區辛亥路三段15號1樓,(02)27390997,0,121.544296,25.021575
65,63000030,中山醫療社團法人中山醫院,0,1,1,1,1,1,1,1,0,1,臺北市大安區仁愛路四段112巷11號,(02)27081166,0,121.549708,25.036552
66,63000030,松德診所,0,1,1,1,1,1,1,1,0,1,臺北市大安區四維路170巷16號1樓,(02)27073326,0,121.546655,25.028243
67,63000030,健華診所,0,1,1,1,1,1,1,1,0,1,臺北市大安區和平東路二段299號,(02)27072990,0,121.543606,25.024409
68,63000030,小禾馨小兒專科診所,1,1,1,1,1,1,0,1,0,0,臺北市大安區新生南路三段4號1樓,(02)23698833,0,121.533697,25.020794
69,63000030,家齡診所,0,1,1,1,1,1,1,1,0,0,臺北市大安區敦化南路一段191號B1,(02)27211258,0,121.54926,25.042473
70,63000030,夏爾診所,0,1,1,1,1,1,1,0,0,1,臺北市大安區信義路四段265巷54號,(02)23255508,0,121.555672,25.035085
71,63000030,那明珠診所,0,1,1,1,1,1,0,1,0,1,臺北市大安區和平東路三段8號,(02)27360589,0,121.553755,25.022306
72,63000030,安東診所,0,1,1,1,1,1,1,0,0,0,臺北市大安區和平東路二段229號,(02)27088995,0,121.542897,25.025145
73,63000030,呂小兒科診所,0,1,1,1,1,1,1,0,0,0,臺北市大安區通化街24巷6號1樓,(02)27000708,0,121.55412,25.031695
74,63000030,李細祥內科診所,0,1,1,1,1,1,1,0,0,0,臺北市大安區四維路198巷30弄5號,(02)27018159,0,121.545698,25.0266
75,63000030,林繼國診所,0,1,1,1,1,1,1,0,0,0,臺北市大安區忠孝東路三段217巷1弄12號1樓,(02)27315568,0,121.53911,25.042407
76,63000030,邱醫師診所,0,1,1,1,1,1,1,0,0,0,臺北市大安區和平東路三段288號,(02)27392696,0,121.560267,25.016676
77,63000030,樂益耳鼻喉科診所,0,1,1,1,1,1,1,0,0,0,臺北市大安區復興南路二段161號1樓,(02)27096199,0,121.543697,25.028006
78,63000030,伊生診所,0,1,1,1,1,1,1,0,0,0,臺北市大安區忠孝東路四段216巷32弄15號,(02)27751301,0,121.552128,25.040025
79,63000030,吳坤光婦產科診所,0,1,1,1,1,1,1,0,0,0,臺北市大安區信義路四段59號,(02)27059320,0,121.555812,25.034939
80,63000030,許靜瑛小兒科診所,0,1,1,1,1,1,0,1,0,0,臺北市大安區和平東路一段230號1樓,(02)23629088,0,121.532341,25.026089
81,63000030,黃文香兒科診所,0,1,1,1,1,1,0,1,0,0,臺北市大安區忠孝東路四段250號2樓之1,(02)27313305,0,121.554277,25.041144
82,63000030,劉建宏診所,0,1,1,1,1,1,0,1,0,0,臺北市大安區大安路二段139號,(02)27002368,0,121.546096,25.028566
83,63000030,禾馨新生婦幼診所,0,1,1,1,1,1,0,1,0,0,臺北市大安區新生南路三段2號,(02)23682333,0,121.535333,25.025299
84,63000030,澤星親子診所,0,1,1,1,1,0,1,1,0,0,臺北市大安區敦化南路1段376號二樓之2,(02)27018848,0,121.545213,25.035492
85,63000030,博全婦產科診所,0,1,1,1,1,1,0,0,0,0,臺北市大安區大安路一段18號,(02)27774427,0,121.5461,25.044162
86,63000030,葉明憲小兒科診所,0,1,1,1,1,1,0,0,0,0,臺北市大安區羅斯福路三段191號2樓,(02)23691688,0,121.528081,25.021077
87,63000030,和平診所,0,1,1,1,1,0,1,0,0,0,臺北市大安區和平東路一段77號之2,(02)23912000,0,121.525155,25.027058
88,63000030,啟誠聯合診所,0,0,1,1,1,1,1,0,0,0,臺北市大安區和平東路二段120號,(02)23784380,0,121.54293,25.024742
89,63000030,仁安診所,0,0,1,1,1,1,1,0,0,0,臺北市大安區和平東路二段175巷34號,(02)27065995,0,121.541754,25.02687
90,63000030,瑞森診所,0,0,1,1,1,1,1,0,0,0,臺北市大安區信義路三段134巷100號,(02)27076002,0,121.53943,25.030808
91,63000030,愛群兒童成長診所,0,1,1,1,1,0,0,0,0,0,臺北市大安區信義路三段155號1樓,(02)55998330,0,121.542826,25.033622
92,63000030,全家聯合診所,0,1,0,0,0,1,1,1,0,0,臺北市大安區和平東路二段353號,(02)27067575,0,121.543562,25.023147
93,63000030,博安家庭醫學診所,0,0,1,1,1,0,1,0,0,0,臺北市大安區麗水街3號,(02)23567066,0,121.529019,25.032137
94,63000030,東風診所,0,0,0,1,1,1,1,0,0,0,臺北市大安區忠孝東路四段132號4樓,(02)27775868,0,121.548235,25.041334
95,63000030,國立臺灣大學醫學院附設醫院癌醫中心分院,0,0,0,0,1,1,1,0,0,0,臺北市大安區基隆路三段155巷57號,(02)23220322,0,121.543916,25.014496
96,63000030,中心診所醫療財團法人中心綜合醫院,0,0,0,0,1,1,1,0,0,0,臺北市大安區忠孝東路四段77號,(02)27510221,0,121.552886,25.043989
97,63000030,宏恩醫療財團法人宏恩綜合醫院,0,0,0,0,1,1,1,0,0,0,臺北市大安區仁愛路四段71巷1號,(02)27713161,0,121.547027,25.038497
98,63000030,安仁診所,0,0,0,0,1,1,1,0,0,0,臺北市大安區安和路一段29號6樓,(02)87733676,0,121.550683,25.03913
99,63000030,行一診所,0,0,0,0,1,1,1,0,0,0,臺北市大安區新生南路三段19巷8號3樓之1,(02)27840735,0,121.535923,25.024962
100,63000030,李唯通診所,0,0,0,0,1,1,1,0,0,0,臺北市大安區安居街19號,(02)23773506,0,121.554932,25.020857
101,63000030,沈德昌診所,0,0,0,0,1,1,1,0,0,0,臺北市大安區四維路189號,(02)27035300,0,121.54812,25.027668
102,63000030,逸林診所,0,0,0,0,1,1,1,0,0,0,臺北市大安區信義路四段109之2號,(02)27006896,0,121.547829,25.033494
103,63000030,新鑫耳鼻喉科診所,0,0,0,0,1,1,1,0,0,0,臺北市大安區師大路105巷13號1樓,(02)23621201,0,121.528497,25.022559
104,63000030,樂活診所,0,0,0,0,1,1,1,0,0,0,臺北市大安區師大路12號,(02)23683883,0,121.527317,25.022928
105,63000030,謝婦產科診所,0,0,0,0,1,1,1,0,0,0,臺北市大安區忠孝東路四段311號3樓之1,(02)27728300,0,121.553013,25.042897
106,63000030,櫟安診所,0,0,0,0,1,1,1,0,0,0,臺北市大安區金山南路二段200號11樓,(02)23582138,0,121.525961,25.027928
107,63000030,周大中婦產科診所,0,1,0,0,0,1,0,0,0,0,臺北市大安區敦化南路二段46號2樓,(02)27552757,0,121.548271,25.031308
108,63000030,國立台灣大學保健中心,0,0,0,1,1,0,0,0,0,0,臺北市大安區羅斯福路四段1號,(02)33662156,0,121.53967,25.009684
109,63000030,秀傳醫院,0,0,0,0,1,1,0,0,0,0,臺北市大安區光復南路116巷1號B1-4樓,(02)27717172,0,121.55686,25.043113
110,63000030,林青穀家庭醫學科診所,0,0,0,0,1,1,0,0,0,0,臺北市大安區大安路一段2號之1,(02)27317557,0,121.54643,25.043934
111,63000030,林正宗婦產科診所,0,1,0,0,0,0,0,0,0,0,臺北市大安區和平東路三段100號2樓,(02)27337008,0,121.559858,25.017415
112,63000030,許世賓婦產科診所,0,1,0,0,0,0,0,0,0,0,臺北市大安區和平東路一段169號2樓,(02)33932211,0,121.531786,25.026531
113,63000040,台灣基督長老教會馬偕醫療財團法人馬偕紀念醫院,1,1,1,1,1,1,1,1,1,0,臺北市中山區中山北路二段92號,(02)25433535,0,121.522848,25.061007
114,63000040,台灣基督長老教會馬偕醫療財團法人馬偕兒童醫院,1,1,1,1,1,1,1,1,0,1,臺北市中山區中山北路二段92號,(02)25433535,0,121.522848,25.061007
115,63000040,臺北市立聯合醫院附設中山門診部,1,1,1,1,1,1,1,1,0,1,臺北市中山區松江路367號1樓,(02)25013363,0,121.53358,25.064383
116,63000040,協和婦女醫院,1,1,1,1,1,1,1,1,0,0,臺北市中山區松江路85巷5號,(02)25072222,0,121.533941,25.050274
117,63000040,莊宇龍診所,0,1,1,1,1,1,1,1,0,1,臺北市中山區北安路637號1樓,(02)25331255,0,121.549027,25.083709
118,63000040,雙連婦產科小兒科診所,0,1,1,1,1,1,1,1,0,1,臺北市中山區民生西路30號4樓,(02)25222350,0,121.521633,25.057639
119,63000040,綠葉親子診所,0,1,1,1,1,1,1,1,0,1,臺北市中山區農安街12-1號1樓,(02)25935559,0,121.532308,25.064786
120,63000040,木生婦幼診所,1,1,1,1,1,1,0,1,0,0,臺北市中山區長安東路二段90號1-4樓,(02)25012312,0,121.534434,25.048327
121,63000040,永育樂群診所,0,1,1,1,1,1,1,1,0,0,臺北市中山區樂群二路210之2號,(02)85012268,0,121.559312,25.079518
122,63000040,陳炯輝診所,0,1,1,1,1,1,1,1,0,0,臺北市中山區民生東路二段103號,(02)25221796,0,121.534872,25.059802
123,63000040,榮星診所,0,1,1,1,1,1,1,0,0,1,臺北市中山區龍江路272號,(02)25168112,0,121.540635,25.060608
124,63000040,愛鄰診所,0,1,1,1,1,1,0,1,0,1,臺北市中山區北安路520-1號,(02)25322333,0,121.552083,25.085995
125,63000040,四季和安婦幼診所,1,1,1,1,1,0,0,1,0,0,臺北市中山區林森北路458號,(02)25677310,0,121.525434,25.060964
126,63000040,大直佳恩診所,0,1,1,1,1,1,1,0,0,0,臺北市中山區北安路591號,(02)25323301,0,121.54864,25.081944
127,63000040,大直診所,0,1,1,1,1,1,1,0,0,0,臺北市中山區北安路595巷2弄2號1樓,(02)25332339,0,121.547759,25.081893
128,63000040,北安聯合診所,0,1,1,1,1,1,1,0,0,0,臺北市中山區北安路569-3號,(02)25337777,0,121.552083,25.085995
129,63000040,杏慈診所,0,1,1,1,1,1,1,0,0,0,臺北市中山區民權東路二段152巷2-1號1樓,(02)25013109,0,121.534844,25.060983
130,63000040,固廉診所,0,1,1,1,1,1,1,0,0,0,臺北市中山區北安路613號595巷1號地下一層,(02)25323036,0,121.548799,25.082582
131,63000040,高固廉診所,0,1,1,1,1,1,1,0,0,0,臺北市中山區北安路613號,(02)25323036,0,121.548799,25.082582
132,63000040,惟廉診所,0,1,1,1,1,1,1,0,0,0,臺北市中山區北安路595巷1號B1,(02)25323036,0,121.548387,25.082284
133,63000040,慶恩小兒科診所,0,1,1,1,1,1,1,0,0,0,臺北市中山區吉林路117號,(02)25683199,0,121.530296,25.056739
134,63000040,龍江小兒科診所,0,1,1,1,1,1,1,0,0,0,臺北市中山區龍江路181-1號1樓,(02)25152433,0,121.541482,25.059105
135,63000040,龍江固廉診所,0,1,1,1,1,1,1,0,0,0,臺北市中山區龍江路360號,(02)25170093,0,121.540883,25.066138
136,63000040,中崙國際診所,0,1,1,1,1,1,1,0,0,0,臺北市中山區八德路二段305號1樓,(02)27711501,0,121.542567,25.047353
137,63000040,寧康聯合診所,0,1,1,1,1,1,0,1,0,0,臺北市中山區龍江路209巷6-1號,(02)25013862,0,121.541521,25.056506
138,63000040,鄭志誠小兒科診所,0,1,1,1,1,1,0,0,0,1,臺北市中山區民生東路一段8號,(02)25512246,0,121.523392,25.057856
139,63000040,晴光診所,0,1,1,1,1,1,0,0,0,0,臺北市中山區林森北路556號1樓,(02)25853210,0,121.525474,25.056172
140,63000040,正恩耳鼻喉科診所,0,0,1,1,1,1,1,0,0,0,臺北市中山區錦州街321號,(02)25052293,0,121.538505,25.060326
141,63000040,農安診所,0,0,1,1,1,1,1,0,0,0,臺北市中山區農安街62號,(02)25978590,0,121.528575,25.064764
142,63000040,德美診所,0,0,1,1,1,1,1,0,0,0,臺北市中山區北安路596號1樓,(02)25326618,0,121.548875,25.081732
143,63000040,陳世澤內科診所,0,0,0,1,1,1,1,0,0,0,臺北市中山區龍江路284-1號,(02)25011239,0,121.541482,25.059105
144,63000040,李義男婦產科診所,0,1,0,0,1,1,0,0,0,0,臺北市中山區中山北路二段71號4樓,(02)25361158,0,121.52305,25.057286
145,63000040,臺北市立聯合醫院林森院區,0,0,0,0,1,1,1,0,0,0,臺北市中山區林森北路530號,(02)25916681,0,121.525523,25.063451
146,63000040,民生承安診所,0,0,0,0,1,1,1,0,0,0,臺北市中山區民生東路三段90號,(02)25032633,0,121.543538,25.057459
147,63000040,李宜霖診所,0,0,0,0,1,1,1,0,0,0,臺北市中山區植福路298號,(02)26582669,0,121.561206,25.081195
148,63000040,宗北內科診所,0,0,0,0,1,1,1,0,0,0,臺北市中山區民生西路24號2樓,(02)25411001,0,121.521903,25.057668
149,63000040,信安診所,0,0,0,0,1,1,1,0,0,0,臺北市中山區民生西路24號3樓,(02)25118112,0,121.521903,25.057668
150,63000040,聖和骨外科診所,0,0,0,0,1,1,1,0,0,0,臺北市中山區農安街140號,(02)25969131,0,121.532162,25.064713
151,63000040,晨昕診所,0,0,0,0,1,1,1,0,0,0,臺北市中山區復興北路350號3樓,(02)25181268,0,121.543927,25.06007
152,63000040,吳振力診所,0,0,0,0,1,1,0,0,0,0,臺北市中山區長春路309號,(02)25095909,0,121.542828,25.054718
153,63000040,禾康診所,0,0,0,1,1,0,0,0,0,0,臺北市中山區林森北路486號1樓,(02)25319998,0,121.525474,25.056172
154,63000040,啟新診所,0,0,0,0,1,1,0,0,0,0,臺北市中山區建國北路三段42號5、6樓,(02)25070723,0,121.536598,25.064393
155,63000040,葉小兒科診所,0,0,0,0,1,1,0,0,0,0,臺北市中山區長春路227號,(02)25054833,0,121.538827,25.054807
156,63000040,慶生診所,0,0,0,0,1,1,0,0,0,0,臺北市中山區林森北路561號2樓,(02)25983456,0,121.525474,25.056172
157,63000040,麗安耳鼻喉科診所,0,0,0,0,1,1,0,0,0,0,臺北市中山區龍江路289號1樓,(02)25068080,0,121.540845,25.060528
158,63000040,王三郎婦產科診所,0,0,0,0,1,0,1,0,0,0,臺北市中山區中山北路二段166號之2,(02)25948758,0,121.522273,25.06332
159,63000040,長安診所,0,0,0,0,1,0,0,0,0,0,臺北市中山區八德路二段259號,(02)27111000,0,121.541258,25.047032
160,63000040,柏安診所,0,0,0,0,1,1,0,0,0,0,臺北市中山區長安東路二段88號及90號10樓,(02)25019010,0,121.534395,25.048328
161,63000050,臺北市立聯合醫院和平院區,1,1,1,1,1,1,1,1,1,1,臺北市中正區中華路二段33號,(02)23889595,0,121.508882,25.025214
162,63000050,臺北市立聯合醫院婦幼院區,1,1,1,1,1,1,1,1,0,1,臺北市中正區福州街12號,(02)23916470,0,121.519246,25.029112
163,63000050,國立臺灣大學醫學院附設醫院兒童醫院,1,1,1,1,1,1,1,1,0,1,臺北市中正區中山南路8號,(02)23123456,(02)23567890,121.518748,25.044343
164,63000050,臺北市立聯合醫院附設中正門診部,1,1,1,1,1,1,1,1,0,0,臺北市中正區牯嶺街24號,(02)23210168,0,121.519787,25.024268
165,63000050,禾馨婦產科診所,1,1,1,1,1,1,0,1,0,0,臺北市中正區懷寧街78號1樓,(02)23612323,0,121.513987,25.043101
166,63000050,周正成小兒科診所,0,1,1,1,1,1,0,1,0,0,臺北市中正區徐州路24號,(02)23516830,0,121.523353,25.040625
167,63000050,悅心診所,0,1,1,1,1,1,0,0,0,0,臺北市中正區羅斯福路二段7-2號,(02)23961008,0,121.520661,25.0284
168,63000050,和眾綜合診所,0,0,1,1,1,1,1,0,0,0,臺北市中正區忠孝西路一段6號1樓,(02)23818766,0,121.518083,25.045824
169,63000050,健康101診所,0,0,1,1,1,1,1,0,0,0,臺北市中正區牯嶺街97號1樓,(02)23648085,0,121.51908,25.025915
170,63000050,國立臺灣大學醫學院附設醫院,0,0,0,0,1,1,1,1,1,0,臺北市中正區中山南路7、8號；常德街1號,(02)23123456,(02)23567890,121.517564,25.04536
171,63000050,郵政醫院(委託中英醫療社團法人經營),0,0,0,0,1,1,1,0,0,0,臺北市中正區福州街14號,(02)23956755,0,121.518695,25.028749
172,63000050,丞泰耳鼻喉科診所,0,0,0,0,1,1,1,0,0,0,臺北市中正區南昌路一段78號,(02)23973668,0,121.517269,25.030996
173,63000050,同泰診所,0,0,0,0,1,1,1,0,0,0,臺北市中正區汀州路二段136、138號,(02)23678511,0,121.520324,25.024728
174,63000050,宜康診所,0,0,0,0,1,1,1,0,0,0,臺北市中正區新生南路一段148號1樓,(02)23417696,0,121.532461,25.035246
175,63000050,怡和診所,0,0,0,0,1,1,1,0,0,0,臺北市中正區汀州路二段212號,(02)23625100,0,121.523715,25.022361
176,63000050,國軍台北門診中心附設民眾診療服務處,0,0,0,0,1,1,1,0,0,0,臺北市中正區紹興南街7號,(02)23918235,0,121.523995,25.040123
177,63000050,張孟源內科診所,0,0,0,0,1,1,1,0,0,0,臺北市中正區中華路二段325號1樓,(02)23098600,0,121.508839,25.025252
178,63000050,博士診所,0,0,0,0,1,1,1,0,0,0,臺北市中正區南陽街8號B1,(02)23120120,0,121.516054,25.045209
179,63000050,惠恩診所,0,0,0,0,1,1,1,0,0,0,臺北市中正區濟南路二段48巷3-2號1樓,(02)23919572,0,121.53097,25.039773
180,63000050,匯安診所,0,0,0,0,1,1,1,0,0,0,臺北市中正區和平西路一段20號5樓,(02)23637588,0,121.520864,25.026627
181,63000050,銘人診所,0,0,0,0,1,1,1,0,0,0,臺北市中正區博愛路9號3樓,(02)77557566,0,121.5115,25.045916
182,63000050,元泰診所,0,0,0,0,1,1,0,0,0,0,臺北市中正區羅斯福路三段2號2樓,(02)23680599,0,121.530747,25.019036
183,63000050,家禾診所,0,0,0,0,1,1,0,0,0,0,臺北市中正區三元街217號1樓、2樓,(02)23331368,0,121.51337,25.027658
184,63000050,鈞安診所,0,0,0,0,1,1,0,0,0,0,臺北市中正區中華路二段431號1樓,(02)23092030,0,121.509032,25.025276
185,63000050,醫療財團法人徐元智先生醫藥基金會遠東聯合診所,0,0,0,0,1,0,1,0,0,0,臺北市中正區永綏街8號,(02)23111525,0,121.511032,25.043003
186,63000060,臺北市立聯合醫院中興院區,1,1,1,1,1,1,1,1,1,1,臺北市大同區鄭州路145號,(02)25523234,0,121.508885,25.050693
187,63000060,臺北市立聯合醫院附設大同門診部,1,1,1,1,1,1,1,1,0,1,臺北市大同區昌吉街52號1樓,(02)25948971,0,121.516338,25.065816
188,63000060,羅源彰診所,0,1,1,1,1,1,1,1,0,1,臺北市大同區長安西路137號,(02)25552500,0,121.514144,25.051522
189,63000060,悅昇診所,0,1,1,1,1,1,1,1,0,1,臺北市大同區錦西街50-1號,(02)25502664,0,121.518644,25.060216
190,63000060,寧夏診所,0,1,1,1,1,1,1,1,0,0,臺北市大同區民生西路236號1樓,(02)25586060,0,121.514413,25.056892
191,63000060,澤康診所,0,1,1,1,1,1,1,1,0,0,臺北市大同區重慶北路三段71號,(02)25960922,0,121.513907,25.066348
192,63000060,施小兒科診所,0,1,1,1,1,1,1,0,0,0,臺北市大同區重慶北路三段28號,(02)25941935,0,121.513458,25.06509
193,63000060,羅志弘診所,0,1,1,1,1,1,1,0,0,0,臺北市大同區重慶北路三段115號,(02)25921666,0,121.514159,25.067317
194,63000060,建順診所,0,0,0,1,1,1,1,0,0,0,臺北市大同區甘州街51號1樓,(02)25573250,0,121.512851,25.059677
195,63000060,鈞生診所,0,0,0,1,1,1,1,0,0,0,臺北市大同區甘州街28號,(02)25570048,0,121.512785,25.058836
196,63000060,建成診所,0,0,0,0,1,1,1,0,0,0,臺北市大同區長安西路82號,(02)25500712,0,121.51918,25.050303
197,63000060,紘成診所,0,0,0,0,1,1,1,0,0,0,臺北市大同區長安西路53巷7弄1號,(02)25592412,0,121.517796,25.051474
198,63000060,佑佳內科診所,0,0,0,0,1,0,0,0,0,0,臺北市大同區承德路二段142號1樓&2樓,(02)25575687,0,121.518004,25.059554
199,63000070,國立臺灣大學醫學院附設醫院北護分院,1,1,1,1,1,1,1,1,0,0,臺北市萬華區內江街87號,(02)23717101,0,121.503547,25.041739
200,63000070,臺北市立聯合醫院附設萬華門診部,1,1,1,1,1,1,1,1,0,0,臺北市萬華區東園街152號,(02)23395383,0,121.497611,25.023177
201,63000070,快樂兒童診所,0,1,1,1,1,1,1,1,0,1,臺北市萬華區寶興街121號,(02)23328610,0,121.4948,25.025229
202,63000070,青年診所,0,1,1,1,1,1,1,1,0,1,臺北市萬華區中華路二段424號,(02)23032450,0,121.509533,25.02481
203,63000070,漢宗小兒科診所,0,1,1,1,1,1,1,1,0,1,臺北市萬華區中華路二段434號,(02)23039022,0,121.509534,25.024809
204,63000070,西園醫療社團法人西園醫院,0,1,1,1,1,1,1,1,0,0,臺北市萬華區西園路二段270號,(02)23076968,0,121.494428,25.027703
205,63000070,聖約翰婦產科診所,0,1,1,1,0,1,1,0,0,0,臺北市萬華區東園街175號,(02)23098502,0,121.497351,25.024169
206,63000070,佳安診所,0,0,1,1,1,1,1,0,0,0,臺北市萬華區青年路34號,(02)23320898,0,121.504597,25.025639
207,63000070,益銓診所,0,0,1,1,1,1,1,0,0,0,臺北市萬華區萬大路233號,(02)23331323,0,121.498679,25.021472
208,63000070,光耳鼻喉科診所,0,0,1,1,1,1,0,0,0,0,臺北市萬華區青年路90號,(02)23077565,0,121.502581,25.023083
209,63000070,可為診所,0,0,1,1,1,0,1,0,0,0,臺北市萬華區青年路24號1樓,(02)23370111,0,121.505296,25.025856
210,63000070,名家耳鼻喉科診所,0,0,0,1,1,1,1,0,0,0,臺北市萬華區西藏路107-2號1樓,(02)23036513,0,121.502802,25.027636
211,63000070,健安診所,0,0,0,1,1,1,1,0,0,0,臺北市萬華區萬大路432號1樓,(02)23012255,0,121.498381,25.021003
212,63000070,臺北市立聯合醫院昆明院區,0,0,0,0,1,1,1,0,1,0,臺北市萬華區昆明街100號,(02)23703739,0,121.504569,25.044825
213,63000070,同仁院醫療財團法人萬華醫院,0,0,0,0,1,1,1,0,0,0,臺北市萬華區中華路二段606巷6號,(02)23059292,0,121.509823,25.024051
214,63000070,財團法人台灣省私立台北仁濟院附設仁濟醫院,0,0,0,0,1,1,1,0,0,0,臺北市萬華區廣州街243號,(02)23021133,0,121.497998,25.036867
215,63000070,天行健診所,0,0,0,0,1,1,1,0,0,0,臺北市萬華區寶興街127號,(02)23320688,0,121.494857,25.025104
216,63000070,台北透析診所,0,0,0,0,1,1,1,0,0,0,臺北市萬華區西園路一段200號3樓,(02)23382398,0,121.499205,25.035923
217,63000070,永康診所,0,0,0,0,1,1,1,0,0,0,臺北市萬華區桂林路47號,(02)23123455,0,121.494618,25.037465
218,63000070,瑞生診所,0,0,0,0,1,1,1,0,0,0,臺北市萬華區西園路二段250號,(02)23012788,0,121.494794,25.028026
219,63000070,萬澤內科診所,0,0,0,0,1,1,1,0,0,0,臺北市萬華區萬大路425之1號2~3樓,(02)23397018,0,121.498734,25.021405
220,63000070,慧洋診所,0,0,0,0,1,1,1,0,0,0,臺北市萬華區莒光路125號,(02)23020209,0,121.503808,25.030972
221,63000070,東京生活診所,0,0,0,0,1,1,1,0,0,0,臺北市萬華區萬大路491號1樓,(02)23090990,0,121.49838,25.021002
222,63000070,萬大聖心診所,0,0,0,0,1,1,1,0,0,0,臺北市萬華區萬大路425號1樓,(02)23090006,0,121.498734,25.021405
223,63000070,盧漢隆耳鼻喉科診所,0,0,0,0,1,1,0,0,0,0,臺北市萬華區環河南路二段197號,(02)23361363,0,121.49175,25.032269
224,63000070,新田診所,0,0,0,0,1,0,1,0,0,0,臺北市萬華區梧州街62號1樓,(02)23089515,0,121.497496,25.03572
225,63000080,臺北市立萬芳醫院-委託臺北醫學大學辦理,1,1,1,1,1,1,1,1,1,1,臺北市文山區興隆路三段111號,(02)29307930,0,121.557849,25.000833
226,63000080,臺北市立聯合醫院附設政大門診部,1,1,1,1,1,1,1,1,0,1,臺北市文山區指南路二段117號,(02)82377441,0,121.576521,24.987619
227,63000080,佳鴻診所,0,1,1,1,1,1,1,1,0,1,臺北市文山區羅斯福路六段256號1樓,(02)29333096,0,121.54018,24.991869
228,63000080,洪佑承小兒專科診所,0,1,1,1,1,1,1,1,0,1,臺北市文山區興隆路四段64-2號1樓,(02)29364708,0,121.562913,24.983734
229,63000080,葉洪小兒科診所,0,1,1,1,1,1,1,1,0,1,臺北市文山區興隆路三段202號,(02)22300055,0,121.559055,24.997753
230,63000080,林建輝小兒科診所,0,1,1,1,1,1,1,1,0,0,臺北市文山區興隆路二段70號1樓,(02)29334933,0,121.547995,24.999749
231,63000080,徐慧玲診所,0,1,1,1,1,1,1,1,0,0,臺北市文山區興隆路四段97號,(02)22340000,0,121.560496,24.98834
232,63000080,興隆內科小兒科診所,0,1,1,1,1,1,1,1,0,0,臺北市文山區興隆路二段17號,(02)29311736,0,121.553503,25.002217
233,63000080,屈銘軒小兒科診所,0,1,1,1,1,1,0,1,0,1,臺北市文山區興隆路二段301巷4-2號,(02)29308518,0,121.553617,25.002295
234,63000080,瑞萱診所,0,1,1,1,1,1,1,0,0,0,臺北市文山區景華街124號,(02)29305313,0,121.546825,24.995611
235,63000080,興隆李內兒科診所,0,1,1,1,1,1,1,0,0,0,臺北市文山區興隆路一段12號,(02)29314537,0,121.541533,25.004029
236,63000080,德安小兒科診所,0,1,1,1,1,1,0,1,0,0,臺北市文山區興隆路四段6-10號1樓,(02)29395299,0,121.562913,24.983734
237,63000080,樂群耳鼻喉科家醫科診所,0,1,1,1,1,1,0,0,0,0,臺北市文山區木新路三段202號,(02)22340158,0,121.560019,24.981647
238,63000080,震杰小兒科診所,0,1,1,1,1,1,0,0,0,0,臺北市文山區景興路129號,(02)89351869,0,121.547357,24.99632
239,63000080,黃偉志小兒科診所,0,1,1,1,1,0,0,1,0,0,臺北市文山區萬慶街12號,(02)29354556,0,121.540076,24.992397
240,63000080,仁荔健康診所,0,0,1,1,1,1,1,0,0,0,臺北市文山區興隆路一段258號1樓,(02)29339986,0,121.544952,24.998466
241,63000080,東翰診所,0,0,1,1,1,1,1,0,0,0,臺北市文山區興隆路二段139號,(02)29308330,0,121.54819,25.000227
242,63000080,仁耀診所,0,0,0,1,1,1,1,0,0,0,臺北市文山區興隆路一段273號,(02)29317788,0,121.544383,24.99896
243,63000080,順欣診所,0,0,0,1,1,1,1,0,0,0,臺北市文山區木柵路三段112號,(02)29391011,0,121.567698,24.988675
244,63000080,景美醫院,0,0,0,0,1,1,1,0,0,0,臺北市文山區羅斯福路六段280號,(02)29331010,0,121.53983,24.991089
245,63000080,吳錫賢診所,0,0,0,0,1,1,1,0,0,0,臺北市文山區木新路三段208號,(02)29381577,0,121.559746,24.981581
246,63000080,官世英診所,0,0,0,0,1,1,1,0,0,0,臺北市文山區景興路45號1樓,(02)86638189,0,121.542661,24.995105
247,63000080,定安診所,0,0,0,0,1,1,1,0,0,0,臺北市文山區景興路165號,(02)29323755,0,121.547795,24.997599
248,63000080,林正豐診所,0,0,0,0,1,1,1,0,0,0,臺北市文山區保儀路25號,(02)29363665,0,121.568323,24.987617
249,63000080,欣民診所,0,0,0,0,1,1,1,0,0,0,臺北市文山區保儀路37號,(02)29375115,0,121.568695,24.987909
250,63000080,泓仁診所,0,0,0,0,1,1,1,0,0,0,臺北市文山區木新路二段273號,(02)29382627,0,121.566099,24.982948
251,63000080,健鑫診所,0,0,0,0,1,1,1,0,0,0,臺北市文山區忠順街一段28號1樓,(02)29375680,0,121.558406,24.983231
252,63000080,陳建業診所,0,0,0,0,1,1,1,0,0,0,臺北市文山區景文街86號,(02)29358181,0,121.541032,24.990514
253,63000080,世誠耳鼻喉科診所,0,0,0,0,1,1,0,0,0,0,臺北市文山區忠順街一段107號1樓,(02)22343618,0,121.559444,24.984216
254,63000090,臺北市立聯合醫院忠孝院區,1,1,1,1,1,1,1,1,1,1,臺北市南港區同德路87號,(02)27861288,0,121.586154,25.046508
255,63000090,臺北市立聯合醫院附設南港門診部,1,1,1,1,1,1,1,1,0,1,臺北市南港區南港路一段360號1樓,(02)27868756,0,121.606756,25.05453
256,63000090,義仁兒科診所,0,1,1,1,1,1,1,1,0,1,臺北市南港區玉成街138號1樓,(02)26515929,0,121.583182,25.045027
257,63000090,蔣小兒科診所,0,1,1,1,1,1,1,1,0,1,臺北市南港區玉成街166巷30號1樓,(02)26513761,0,121.583279,25.043931
258,63000090,友力耳鼻喉科診所,0,1,1,1,1,1,1,1,0,0,臺北市南港區中坡北路12號1樓,(02)27853913,0,121.58126,25.046366
259,63000090,永育醫療福德診所,0,1,1,1,1,1,1,1,0,0,臺北市南港區福德街320號,(02)27850700,0,121.588005,25.039489
260,63000090,天仁小兒科診所,0,1,1,1,1,1,0,1,0,1,臺北市南港區成福路21號,(02)27862687,0,121.588275,25.042433
261,63000090,天仁健康診所,0,1,1,1,1,1,0,1,0,1,臺北市南港區成福路21號,(02)27862687,0,121.588275,25.042433
262,63000090,維康診所,0,1,1,1,1,1,0,1,0,1,臺北市南港區研究院路二段84巷1號1樓,(02)26517748,0,121.615224,25.045209
263,63000090,杏安診所,0,1,1,1,1,1,1,0,0,0,臺北市南港區同德路74、76號1樓,(02)27892008,0,121.585289,25.045798
264,63000090,松展診所,0,1,1,1,1,1,1,0,0,0,臺北市南港區忠孝東路六段110巷18號,(02)27631373,0,121.583938,25.048001
265,63000090,陳志鑫診所,0,1,1,1,1,1,1,0,0,0,臺北市南港區八德路四段812號,(02)27839698,0,121.581426,25.050921
266,63000090,李文珍小兒科診所,0,1,1,1,1,0,1,1,0,0,臺北市南港區研究院路二段74號,(02)26511871,0,121.615106,25.045571
267,63000090,陳勝吉診所,0,0,1,1,1,1,1,0,0,0,臺北市南港區研究院路一段115號1樓,(02)27836972,0,121.616049,25.052064
268,63000090,中坡耳鼻喉科診所,0,0,0,1,1,1,1,0,0,0,臺北市南港區中坡南路29號,(02)27850329,0,121.583243,25.043224
269,63000100,三軍總醫院附設民眾診療服務處,1,1,1,1,1,1,1,1,1,0,臺北市內湖區成功路二段325號,(02)87923311,0,121.591979,25.071802
270,63000100,康寧醫療財團法人康寧醫院,1,1,1,1,1,1,1,1,0,0,臺北市內湖區成功路五段420巷26號,(02)26345500,0,121.608779,25.075952
271,63000100,臺北市立聯合醫院附設內湖門診部,1,1,1,1,1,1,1,1,0,0,臺北市內湖區民權東路六段99號之1,(02)27908387,0,121.599478,25.069692
272,63000100,中國醫藥大學附設醫院臺北分院,0,1,1,1,1,1,1,1,0,1,臺北市內湖區內湖路二段360號,(02)27919696,0,121.590597,25.082126
273,63000100,魏穀年診所,0,1,1,1,1,1,1,1,0,1,臺北市內湖區內湖路一段403號,(02)26572691,0,121.570635,25.081858
274,63000100,小禾馨民權小兒專科診所,1,1,1,1,1,1,0,1,0,0,臺北市內湖區行忠路191號1樓,(02)55713333,0,121.581766,25.06742
275,63000100,禾馨民權婦幼診所,1,1,1,1,1,1,0,1,0,0,臺北市內湖區民權東路六段42號2樓,(02)55713333,0,121.602468,25.067154
276,63000100,永育醫療大湖診所,0,1,1,1,1,1,1,1,0,0,臺北市內湖區成功路四段366號,(02)27906002,0,121.600354,25.084861
277,63000100,湖欣診所,0,1,1,1,1,1,1,1,0,0,臺北市內湖區成功路四段327號,(02)27918350,0,121.598923,25.084538
278,63000100,劉淦華診所,0,1,1,1,1,1,1,1,0,0,臺北市內湖區金龍路43號,(02)27905374,0,121.603769,25.073911
279,63000100,佳霖診所,0,1,1,1,1,1,1,1,0,0,臺北市內湖區東湖路147號2樓,(02)26334535,0,121.617193,25.068146
280,63000100,永育醫療康樂診所,0,1,1,1,1,1,1,1,0,0,臺北市內湖區康樂街82號,(02)26308800,0,121.616807,25.076171
281,63000100,焉醫師診所,0,1,1,1,1,1,0,1,0,1,臺北市內湖區內湖路二段21號,(02)27995008,0,121.579442,25.079019
282,63000100,仁弘耳鼻喉科診所,0,1,1,1,1,1,1,0,0,0,臺北市內湖區內湖路一段737巷50弄33號1樓,(02)26596360,0,121.578508,25.080669
283,63000100,馬思特診所,0,1,1,1,1,1,1,0,0,0,臺北市內湖區成功路四段53號1樓,(02)27925994,0,121.592261,25.082602
284,63000100,高峰診所,0,1,1,1,1,1,1,0,0,0,臺北市內湖區內湖路二段39號1樓,(02)26591888,0,121.580022,25.079007
285,63000100,國泰醫療財團法人內湖國泰診所,0,1,1,1,1,0,1,1,0,0,臺北市內湖區瑞光路337號C棟,(02)87972121,0,121.575546,25.077865
286,63000100,林登山耳鼻喉科診所,0,1,1,1,1,1,0,0,0,0,臺北市內湖區文德路96號,(02)26596638,0,121.582538,25.078214
287,63000100,連安診所,0,1,1,1,1,1,0,0,0,0,臺北市內湖區內湖路一段619號1樓,(02)26276705,0,121.574144,25.080607
288,63000100,雙湖診所,0,1,1,1,1,1,0,0,0,0,臺北市內湖區金龍路49號,(02)27910066,0,121.603588,25.07218
289,63000100,魏之明小兒科診所,0,1,1,1,1,1,0,0,0,0,臺北市內湖區康寧路三段54-6號,(02)26306968,0,121.611182,25.073685
290,63000100,林永正診所,0,0,1,1,1,1,1,0,0,0,臺北市內湖區康樂街130號,(02)26315567,0,121.615775,25.080646
291,63000100,日新診所,0,0,1,1,1,1,1,0,0,0,臺北市內湖區成功路五段446號1樓,(02)26342743,0,121.607116,25.074807
292,63000100,王慶森診所,0,0,1,1,1,1,1,0,0,0,臺北市內湖區港墘路65號,(02)27986052,0,121.578283,25.081176
293,63000100,成安耳鼻喉科診所,0,0,1,1,1,1,1,0,0,0,臺北市內湖區成功路四段61巷10號,(02)27935940,0,121.593149,25.080065
294,63000100,育睿診所,0,0,1,1,1,1,1,0,0,0,臺北市內湖區內湖路一段217巷35號,(02)26560801,0,121.565396,25.083774
295,63000100,康育診所,0,0,1,1,1,1,1,0,0,0,臺北市內湖區成功路三段189號2樓,(02)27909134,0,121.590781,25.080384
296,63000100,陽光活力診所,0,0,1,1,1,1,1,0,0,0,臺北市內湖區瑞光路500號1樓,(02)87973828,0,121.568269,25.079193
297,63000100,林孟勳診所,0,0,1,1,1,1,0,0,0,0,臺北市內湖區成功路四段61巷32弄2號,(02)87920955,0,121.593409,25.080229
298,63000100,新明診所,0,0,0,1,1,1,1,0,0,0,臺北市內湖區新明路386號,(02)87921282,0,121.580233,25.054815
299,63000100,內湖長春診所,0,0,0,0,1,1,1,0,0,0,臺北市內湖區民權東路六段64號,(02)27926868,0,121.602534,25.067434
300,63000100,思維診所,0,0,0,0,1,1,1,0,0,0,臺北市內湖區文德路25號,(02)26575779,0,121.584272,25.079123
301,63000100,陳森豊聯合診所,0,0,0,0,1,1,1,0,0,0,臺北市內湖區環山路1段2號,(02)27990361,0,121.585206,25.083912
302,63000100,葫洲診所,0,0,0,0,1,1,1,0,0,0,臺北市內湖區康寧路三段35、37號,(02)26306606,0,121.611182,25.073685
303,63000100,樂善診所,0,0,0,0,1,1,1,0,0,0,臺北市內湖區行善路260號,(02)27902600,0,121.581687,25.060308
304,63000100,成功耳鼻喉科診所,0,0,0,0,1,1,0,0,0,0,臺北市內湖區成功路三段162之1號1樓、164號1樓、164之1號1樓、166之1號1樓,(02)27940064,0,0,0
305,63000100,瑞康診所,0,0,0,0,1,1,0,0,0,0,臺北市內湖區江南街96巷3號,(02)26599691,0,121.576908,25.077172
306,63000100,誠康診所,0,0,0,0,1,1,0,0,0,0,臺北市內湖區內湖路一段585號,(02)26572585,0,121.572978,25.08104
307,63000100,麗康診所,0,0,0,0,1,1,0,0,0,0,臺北市內湖區金湖路362號,(02)26342296,0,121.604208,25.073655
308,63000100,洪永祥診所,0,0,0,0,1,0,0,0,0,0,臺北市內湖區成功路三段6巷1號,(02)87917601,0,121.589829,25.075594
309,63000110,新光醫療財團法人新光吳火獅紀念醫院,1,1,1,1,1,1,1,1,1,1,臺北市士林區文昌路95號,(02)28332211,0,121.520986,25.09625
310,63000110,臺北市立聯合醫院陽明院區,1,1,1,1,1,1,1,1,1,1,臺北市士林區雨聲街105號,(02)28353456,0,121.531563,25.105195
311,63000110,愛林診所,1,1,1,1,1,1,1,1,0,1,臺北市士林區承德路四段222號,(02)28836881,0,121.521331,25.088434
312,63000110,臺北市立聯合醫院附設士林門診部,1,1,1,1,1,1,1,1,0,0,臺北市士林區中正路439號1樓,(02)28836268,0,121.519598,25.092769
313,63000110,士林小兒科診所,0,1,1,1,1,1,1,1,0,1,臺北市士林區中正路249號,(02)28812485,0,121.525362,25.095038
314,63000110,存德小兒科診所,0,1,1,1,1,1,1,1,0,1,臺北市士林區文林路460號,(02)28342567,0,121.524557,25.09564
315,63000110,貝爾診所,0,1,1,1,1,1,1,1,0,1,臺北市士林區中山北路七段82巷9號1樓,(02)28729980,0,121.532454,25.12134
316,63000110,佩佩婦幼診所,0,1,1,1,1,1,1,1,0,1,臺北市士林區中山北路六段182號,(02)28386262,0,121.525198,25.107587
317,63000110,科安診所,0,1,1,1,1,1,1,1,0,1,臺北市士林區社中街116號,(02)28110699,0,121.510379,25.089849
318,63000110,張虔熙小兒科診所,0,1,1,1,1,1,1,1,0,1,臺北市士林區中山北路六段282號,(02)28361368,0,121.525612,25.110086
319,63000110,樹爸爸親子診所,0,1,1,1,1,1,1,1,0,1,臺北市士林區德行東路286號,(02)28381838,0,121.535977,25.109963
320,63000110,蘇慧卿診所,0,1,1,1,1,1,1,1,0,0,臺北市士林區大南路274號,(02)28829955,0,121.519679,25.088749
321,63000110,何小兒科診所,0,1,1,1,1,1,1,0,0,1,臺北市士林區福港街176號,(02)28827401,0,121.517679,25.086654
322,63000110,士林欣然耳鼻喉科診所,0,1,1,1,1,1,1,0,0,0,臺北市士林區文林路450號1樓,(02)28386090,0,121.524622,25.095395
323,63000110,柳橙親子診所,0,1,1,1,1,1,0,1,0,0,臺北市士林區天母北路35號14樓,(02)28742818,0,121.52665,25.120347
324,63000110,蕭雨青小兒科診所,0,1,1,1,1,1,0,0,0,0,臺北市士林區延平北路五段292號,(02)28126415,0,121.509699,25.085702
325,63000110,小禾馨士林小兒專科診所,0,1,1,1,1,0,0,1,0,0,臺北市士林區中正路289號,(02)28827333,0,121.523942,25.094674
326,63000110,和謙耳鼻喉科診所,0,0,1,1,1,1,1,0,0,0,臺北市士林區社中街362號,(02)28165678,0,121.504048,25.092421
327,63000110,忠誠聯合診所,0,0,1,1,1,1,1,0,0,0,臺北市士林區忠誠路二段50巷35號,(02)88661176,0,121.529146,25.110795
328,63000110,粱耳鼻喉科診所,0,0,1,1,1,1,1,0,0,0,臺北市士林區社正路12之1號,(02)28168456,0,121.509303,25.088552
329,63000110,榮清耳鼻喉科診所,0,0,1,1,1,1,1,0,0,0,臺北市士林區文林路483號1樓,(02)28316878,0,121.524212,25.096175
330,63000110,橙光耳鼻喉科診所,0,0,1,1,1,1,1,0,0,0,臺北市士林區大南路286號,(02)28883222,0,121.519311,25.08881
331,63000110,耀明診所,0,0,1,1,1,1,1,0,0,0,臺北市士林區中正路322號,(02)28320657,0,121.522578,25.094724
332,63000110,永捷診所,0,0,1,1,1,1,1,0,0,0,臺北市士林區社子街67號1樓,(02)28111472,0,121.506711,25.087519
333,63000110,慈田耳鼻喉科診所,0,0,1,1,1,1,0,0,0,0,臺北市士林區延平北路五段185號1樓,(02)28123595,0,121.509996,25.083222
334,63000110,林博通醫師診所,0,0,0,1,1,1,0,0,0,0,臺北市士林區通河街60號,(02)28851148,0,121.518478,25.081904
335,63000110,德泰耳鼻喉科診所,0,0,0,0,1,1,1,0,0,0,臺北市士林區通河街42-1號,(02)28851570,0,121.518288,25.08266
336,63000110,心福內科診所,0,0,0,0,1,1,0,0,0,0,臺北市士林區中山北路六段167號,(02)28331115,0,121.524858,25.10717
337,63000110,杏暉診所,0,0,0,0,1,1,0,0,0,0,臺北市士林區社子街15號1樓,(02)28117094,0,121.506573,25.086976
338,63000110,陳彥銘耳鼻喉科診所,0,0,0,0,1,1,0,0,0,0,臺北市士林區士東路12之1號,(02)28381770,0,121.53597,25.111656
339,63000110,鄭醫師診所,0,0,0,0,1,1,0,0,0,0,臺北市士林區延平北路五段120號1樓2樓,(02)28127412,0,121.510563,25.081694
340,63000110,德生診所,0,0,0,0,1,0,1,0,0,0,臺北市士林區文林路552號,(02)29812988,0,121.52404,25.097667
341,63000110,宜達診所,0,0,0,0,1,0,1,0,0,0,臺北市士林區前港街86號1樓,(02)28833678,0,121.51963,25.084983
342,63000110,平安診所,0,0,0,0,1,0,0,0,0,0,臺北市士林區社子街36-1號,(02)28167263,0,121.506301,25.087462
343,63000110,天母耳鼻喉科診所,0,0,0,0,0,1,0,0,0,0,臺北市士林區中山北路六段744號1樓,(02)28748874,0,121.527195,25.099182
344,63000110,家庭醫師張正弘診所,0,0,0,0,0,1,0,0,0,0,臺北市士林區天玉街38巷9號,(02)28747399,0,121.529109,25.12044
345,63000120,臺北榮民總醫院,1,1,1,1,1,1,1,1,1,1,臺北市北投區石牌路二段201號,(02)28712121,0,121.522479,25.120637
346,63000120,振興醫療財團法人振興醫院,1,1,1,1,1,1,1,1,0,1,臺北市北投區振興路45號,(02)28264400,0,121.539331,25.161203
347,63000120,臺北市立聯合醫院附設北投門診部,1,1,1,1,1,1,1,1,0,0,臺北市北投區新市街30號5樓,(02)28912670,0,121.502735,25.132673
348,63000120,台北欣安耳鼻喉科診所,0,1,1,1,1,1,1,1,0,1,臺北市北投區石牌路一段152號,(02)28210501,0,121.509997,25.118505
349,63000120,何叔芳小兒科診所,0,1,1,1,1,1,1,1,0,1,臺北市北投區石牌路二段90巷12號1樓,(02)28206886,0,121.516872,25.117042
350,63000120,宏恩兒科診所,0,1,1,1,1,1,1,1,0,1,臺北市北投區致遠一路二段99號1樓,(02)28271110,0,121.512955,25.112885
351,63000120,李伯匯小兒科診所,0,1,1,1,1,1,1,1,0,1,臺北市北投區石牌路一段93號1樓,(02)28221212,0,121.515137,25.112417
352,63000120,陳獻明小兒科診所,0,1,1,1,1,1,1,1,0,1,臺北市北投區中央南路一段69號1樓,(02)28928950,0,121.501365,25.131447
353,63000120,黃正宏診所,0,1,1,1,1,1,1,1,0,1,臺北市北投區西安街一段359號,(02)28217076,0,121.515314,25.114288
354,63000120,臺北市立關渡醫院-委託臺北榮民總醫院經營,0,1,1,1,1,1,1,1,0,0,臺北市北投區知行路225巷12號,(02)28587000,0,121.466358,25.120188
355,63000120,昱德聯合診所,0,1,1,1,1,1,1,1,0,0,臺北市北投區光明路102號1樓,(02)28975050,0,121.501215,25.133096
356,63000120,清田婦產科家醫科診所,0,1,1,1,1,1,1,1,0,0,臺北市北投區中和街268號,(02)28931323,0,121.500692,25.140162
357,63000120,陳柏宏親子診所,0,1,1,1,1,1,0,1,0,1,臺北市北投區明德路124號,(02)28225257,0,121.52041,25.110069
358,63000120,和勤診所,0,1,1,1,1,1,1,0,0,0,臺北市北投區中央北路四段543號1樓,(02)28942339,0,121.464279,25.123795
359,63000120,陳信方小兒科診所,0,1,1,1,1,1,0,1,0,0,臺北市北投區明德路106號,(02)28201068,0,121.520043,25.109739
360,63000120,黃浩魁小兒科診所,0,1,1,1,1,1,0,1,0,0,臺北市北投區中央北路一段168號,(02)28983256,0,121.498335,25.135651
361,63000120,蔡秉勳小兒科診所,0,1,1,1,1,1,0,1,0,0,臺北市北投區中和街281號,(02)28966525,0,121.500366,25.140287
362,63000120,慈恩耳鼻喉科診所,0,0,1,1,1,1,1,0,0,0,臺北市北投區中央南路一段13號,(02)28978787,0,121.500582,25.130111
363,63000120,橙品耳鼻喉科診所,0,0,1,1,1,1,0,0,0,0,臺北市北投區自強街70號1樓,(02)28200022,0,121.512151,25.11126
364,63000120,台新診所,0,0,0,1,1,1,1,0,0,0,臺北市北投區光明路145號,(02)28936508,0,121.502359,25.134327
365,63000120,張晉豪診所,0,0,0,1,1,1,0,0,0,0,臺北市北投區中央南路一段155號,(02)28913820,0,121.501152,25.129564
366,63000120,三軍總醫院北投分院附設民眾診療服務處,0,0,0,0,1,1,1,0,0,0,臺北市北投區新民路60號,(02)28959808,0,121.509688,25.13989
367,63000120,醫療財團法人辜公亮基金會和信治癌中心醫院,0,0,0,0,1,1,1,0,0,0,臺北市北投區立德路125號,(02)28970011,0,121.472008,25.128341
368,63000120,大順耳鼻喉科診所,0,0,0,0,1,1,1,0,0,0,臺北市北投區中和街236號,(02)28964588,0,121.501496,25.139409
369,63000120,天母力康診所,0,0,0,0,1,1,1,0,0,0,臺北市北投區明德路365號3樓,(02)28210866,0,121.521344,25.11755
370,63000120,文遠診所,0,0,0,0,1,1,1,0,0,0,臺北市北投區石牌路二段346號1樓、2樓,(02)28739991,0,121.524891,25.122941
371,63000120,王永良診所,0,0,0,0,1,1,1,0,0,0,臺北市北投區自強街94號,(02)28227287,0,121.514972,25.110637
372,63000120,永安家庭醫學科診所,0,0,0,0,1,1,1,0,0,0,臺北市北投區中央北路一段172號,(02)28940888,0,121.498228,25.135704
373,63000120,林文正耳鼻喉科診所,0,0,0,0,1,1,1,0,0,0,臺北市北投區明德路92號1樓,(02)28261083,0,121.519674,25.109454
374,63000120,長宏診所,0,0,0,0,1,1,1,0,0,0,臺北市北投區中央北路二段121號,(02)28967372,0,121.494477,25.137168
375,63000120,洪耳鼻喉科診所,0,0,0,0,1,1,1,0,0,0,臺北市北投區中央南路一段43號,(02)28928769,0,121.501673,25.132123
376,63000120,紀耳鼻喉科診所,0,0,0,0,1,1,1,0,0,0,臺北市北投區石牌路二段57號,(02)28214485,0,121.516053,25.116632
377,63000120,祐民聯合診所,0,0,0,0,1,1,1,0,0,0,臺北市北投區中央南路一段207號,(02)28951301,0,121.501338,25.128339
378,63000120,常哲診所,0,0,0,0,1,1,1,0,0,0,臺北市北投區明德路157之4號,(02)28285515,0,121.520717,25.111112
379,63000120,康田診所,0,0,0,0,1,1,1,0,0,0,臺北市北投區自強街76號,(02)28210988,0,121.51191,25.111601
380,63000120,張參雄診所,0,0,0,0,1,1,1,0,0,0,臺北市北投區光明路166-1號,(02)28926555,0,121.502407,25.134568
381,63000120,陳珀勳診所,0,0,0,0,1,1,1,0,0,0,臺北市北投區明德路85號1樓,(02)28206263,0,121.518715,25.108926
382,63000120,萬泰診所,0,0,0,0,1,1,1,0,0,0,臺北市北投區中央北路二段52號,(02)28930727,0,121.495086,25.137173
383,63000120,吉安診所,0,0,0,0,1,1,0,0,0,0,臺北市北投區西安街一段281巷18號,(02)28231832,0,121.516144,25.111541
384,63000120,翰譽耳鼻喉科診所,0,0,0,0,1,1,0,0,0,0,臺北市北投區中央南路一段189號1樓,(02)28959986,0,121.501373,25.128809
